NORAD_CAT_ID,OBJECT_NAME,OBJECT_TYPE,EPOCH,MEAN_MOTION,ECCENTRICITY,INCLINATION,RA_OF_ASC_NODE,ARG_OF_PERICENTER,MEAN_ANOMALY,BSTAR,MEAN_MOTION_DOT,MEAN_MOTION_DDOT,TLE_LINE0,TLE_LINE1,TLE_LINE2,SEMIMAJOR_AXIS,PERIOD,APOGEE,PERIGEE,DECAYED
53773.0,STARLINK-4718,PAYLOAD,2023-11-29 13:17:48,15.08836971,0.0001387,53.2196,55.1545,100.777,259.3379,0.00027539,4.097e-05,0.0,0 STARLINK-4718,1 53773U 22111A   23333.55403906  .00004097  00000-0  27539-3 0  9997,2 53773  53.2196  55.1545 0001387 100.7770 259.3379 15.08836971 68379,6917.89,95.438,540.714,538.795,0.0
53773.0,STARLINK-4718,PAYLOAD,2023-11-29 18:03:57,15.08847903,0.0001314,53.2195,54.2622,100.1363,259.9777,0.00033829,5.101e-05,0.0,0 STARLINK-4718,1 53773U 22111A   23333.75275102  .00005101  00000-0  33829-3 0  9990,2 53773  53.2195  54.2622 0001314 100.1363 259.9777 15.08847903 67303,6917.856,95.437,540.63,538.812,0.0
53773.0,STARLINK-4718,PAYLOAD,2023-11-30 11:33:13,15.0884691,0.0001512,53.2188,50.9984,88.2371,271.8795,-7.4483e-05,-1.473e-05,0.0,0 STARLINK-4718,1 53773U 22111A   23334.48140315 -.00001473  00000-0 -74483-4 0  9990,2 53773  53.2188  50.9984 0001512  88.2371 271.8795 15.08846910 67416,6917.859,95.437,540.77,538.678,0.0
53773.0,STARLINK-4718,PAYLOAD,2023-12-01 11:23:59,15.08847702,0.000156,53.2193,46.5374,72.5535,287.5628,0.00018588,2.672e-05,0.0,0 STARLINK-4718,1 53773U 22111A   23335.47499555  .00002672  00000-0  18588-3 0  9996,2 53773  53.2193  46.5374 0001560  72.5535 287.5628 15.08847702 68664,6917.857,95.437,540.801,538.643,0.0
53773.0,STARLINK-4718,PAYLOAD,2023-12-02 11:14:47,15.08822413,0.0001448,53.2184,42.076,91.1021,269.0137,-0.00023164,-3.971e-05,0.0,0 STARLINK-4718,1 53773U 22111A   23336.46860668 -.00003971  00000-0 -23164-3 0  9994,2 53773  53.2184  42.0760 0001448  91.1021 269.0137 15.08822413 67713,6917.934,95.439,540.801,538.797,0.0
53773.0,STARLINK-4718,PAYLOAD,2023-12-03 11:05:36,15.08812996,0.0001465,53.219,37.6204,108.4794,251.6358,-0.00028473,-4.813e-05,0.0,0 STARLINK-4718,1 53773U 22111A   23337.46222559 -.00004813  00000-0 -28473-3 0  9990,2 53773  53.2190  37.6204 0001465 108.4794 251.6358 15.08812996 68966,6917.963,95.439,540.841,538.814,0.0
53773.0,STARLINK-4718,PAYLOAD,2023-12-04 09:20:58,15.0884236,0.0001183,53.22,33.4504,111.183,248.9288,0.00031306,4.698e-05,0.0,0 STARLINK-4718,1 53773U 22111A   23338.38957051  .00004698  00000-0  31306-3 0  9992,2 53773  53.2200  33.4504 0001183 111.1830 248.9288 15.08842360 68008,6917.873,95.437,540.557,538.92,0.0
53773.0,STARLINK-4718,PAYLOAD,2023-12-05 10:47:09,15.08846281,0.0001288,53.2205,28.6949,126.6302,233.4809,0.0004145,6.316e-05,0.0,0 STARLINK-4718,1 53773U 22111A   23339.44941042  .00006316  00000-0  41450-3 0  9993,2 53773  53.2205  28.6949 0001288 126.6302 233.4809 15.08846281 68164,6917.861,95.437,540.617,538.835,0.0
53773.0,STARLINK-4718,PAYLOAD,2023-12-06 10:37:56,15.08856051,0.0001341,53.2205,24.2321,97.019,263.0955,-2.06e-05,-6.16e-06,0.0,0 STARLINK-4718,1 53773U 22111A   23340.44300985 -.00000616  00000-0 -20600-4 0  9994,2 53773  53.2205  24.2321 0001341  97.0190 263.0955 15.08856051 68310,6917.831,95.437,540.624,538.769,0.0
53773.0,STARLINK-4718,PAYLOAD,2023-12-06 12:13:19,15.08853773,0.0001352,53.2204,23.9344,91.2199,268.8948,1.1027e-05,-1.12e-06,0.0,0 STARLINK-4718,1 53773U 22111A   23340.50925002 -.00000112  00000-0  11027-4 0  9997,2 53773  53.2204  23.9344 0001352  91.2199 268.8948 15.08853773 69423,6917.838,95.437,540.639,538.768,0.0
53773.0,STARLINK-4718,PAYLOAD,2023-12-07 02:31:47,15.08849271,0.0001359,53.2214,21.2566,122.39,237.7223,-0.00014017,-2.519e-05,0.0,0 STARLINK-4718,1 53773U 22111A   23341.10541169 -.00002519  00000-0 -14017-3 0  9997,2 53773  53.2214  21.2566 0001359 122.3900 237.7223 15.08849271 68411,6917.852,95.437,540.657,538.777,0.0
53773.0,STARLINK-4718,PAYLOAD,2023-12-07 08:53:19,15.08848484,0.0001413,53.2207,20.0686,102.4635,257.6515,-8.6132e-05,-1.659e-05,0.0,0 STARLINK-4718,1 53773U 22111A   23341.37036975 -.00001659  00000-0 -86132-4 0  9992,2 53773  53.2207  20.0686 0001413 102.4635 257.6515 15.08848484 69554,6917.854,95.437,540.697,538.742,0.0
53773.0,STARLINK-4718,PAYLOAD,2023-12-08 11:54:52,15.08846759,0.0001414,53.2194,15.0132,93.9677,266.1477,6.7908e-05,7.93e-06,0.0,0 STARLINK-4718,1 53773U 22111A   23342.49644443  .00000793  00000-0  67908-4 0  9997,2 53773  53.2194  15.0132 0001414  93.9677 266.1477 15.08846759 68622,6917.86,95.437,540.703,538.747,0.0
53773.0,STARLINK-4718,PAYLOAD,2023-12-09 11:45:40,15.08842233,0.0001601,53.2196,10.5505,108.874,251.2426,5.8343e-05,6.41e-06,0.0,0 STARLINK-4718,1 53773U 22111A   23343.49004712  .00000641  00000-0  58343-4 0  9992,2 53773  53.2196  10.5505 0001601 108.8740 251.2426 15.08842233 68771,6917.874,95.437,540.846,538.631,0.0
53773.0,STARLINK-4718,PAYLOAD,2023-12-11 08:16:28,15.08840616,0.0001474,53.2191,2.2235,93.3875,266.7286,4.791e-05,4.75e-06,0.0,0 STARLINK-4718,1 53773U 22111A   23345.34476939  .00000475  00000-0  47910-4 0  9995,2 53773  53.2191   2.2235 0001474  93.3875 266.7286 15.08840616 69059,6917.879,95.438,540.763,538.724,0.0
53773.0,STARLINK-4718,PAYLOAD,2023-12-12 08:07:15,15.08832827,0.0001576,53.2195,357.7681,99.0248,261.0922,2.1067e-05,4.7e-07,0.0,0 STARLINK-4718,1 53773U 22111A   23346.33837733  .00000047  00000-0  21067-4 0  9998,2 53773  53.2195 357.7681 0001576  99.0248 261.0922 15.08832827 69203,6917.902,95.438,540.858,538.677,0.0
53773.0,STARLINK-4718,PAYLOAD,2023-12-13 07:58:02,15.08842733,0.000153,53.2192,353.3065,88.4687,271.648,9.11e-05,1.162e-05,0.0,0 STARLINK-4718,1 53773U 22111A   23347.33197161  .00001162  00000-0  91100-4 0  9997,2 53773  53.2192 353.3065 0001530  88.4687 271.6480 15.08842733 69356,6917.872,95.437,540.795,538.679,0.0
53773.0,STARLINK-4718,PAYLOAD,2023-12-14 04:38:03,15.08834836,0.0001536,53.2189,349.4417,77.607,282.5094,4.1183e-05,3.67e-06,0.0,0 STARLINK-4718,1 53773U 22111A   23348.19310066  .00000367  00000-0  41183-4 0  9995,2 53773  53.2189 349.4417 0001536  77.6070 282.5094 15.08834836 69482,6917.896,95.438,540.824,538.699,0.0
53773.0,STARLINK-4718,PAYLOAD,2023-12-14 07:48:49,15.08837909,0.0001586,53.219,348.8471,79.6174,280.4997,7.1384e-05,8.48e-06,0.0,0 STARLINK-4718,1 53773U 22111A   23348.32557853  .00000848  00000-0  71384-4 0  9997,2 53773  53.2190 348.8471 0001586  79.6174 280.4997 15.08837909 70608,6917.887,95.438,540.849,538.655,0.0
53773.0,STARLINK-4718,PAYLOAD,2023-12-15 06:04:13,15.08842753,0.0002035,53.2198,344.683,65.0473,295.073,5.1776e-05,5.36e-06,0.0,0 STARLINK-4718,1 53773U 22111A   23349.25293828  .00000536  00000-0  51776-4 0  9996,2 53773  53.2198 344.6830 0002035  65.0473 295.0730 15.08842753 69642,6917.872,95.437,541.145,538.329,0.0
53773.0,STARLINK-4718,PAYLOAD,2023-12-16 05:55:00,15.08840879,0.0001667,53.2184,340.2252,81.8644,278.2537,5.4898e-05,5.86e-06,0.0,0 STARLINK-4718,1 53773U 22111A   23350.24653837  .00000586  00000-0  54898-4 0  9990,2 53773  53.2184 340.2252 0001667  81.8644 278.2537 15.08840879 70897,6917.878,95.437,540.896,538.589,0.0
53773.0,STARLINK-4718,PAYLOAD,2023-12-17 04:10:24,15.08838829,0.0001783,53.2187,336.0561,116.34,243.7776,1.9211e-05,1.8e-07,0.0,0 STARLINK-4718,1 53773U 22111A   23351.17389823  .00000018  00000-0  19211-4 0  9994,2 53773  53.2187 336.0561 0001783 116.3400 243.7776 15.08838829 69936,6917.884,95.438,540.982,538.516,0.0
53773.0,STARLINK-4718,PAYLOAD,2023-12-17 05:45:47,15.08839799,0.0001791,53.219,335.7616,115.7826,244.3351,2.4977e-05,1.09e-06,0.0,0 STARLINK-4718,1 53773U 22111A   23351.24013807  .00000109  00000-0  24977-4 0  9994,2 53773  53.2190 335.7616 0001791 115.7826 244.3351 15.08839799 71049,6917.881,95.438,540.985,538.507,0.0
53773.0,STARLINK-4718,PAYLOAD,2023-12-18 04:01:10,15.08851096,0.0001521,53.2179,331.5972,106.5927,253.5232,0.00017348,2.475e-05,0.0,0 STARLINK-4718,1 53773U 22111A   23352.16748676  .00002475  00000-0  17348-3 0  9996,2 53773  53.2179 331.5972 0001521 106.5927 253.5232 15.08851096 70083,6917.846,95.437,540.764,538.659,0.0
53773.0,STARLINK-4718,PAYLOAD,2023-12-18 05:36:33,15.08853453,0.0001532,53.2181,331.2973,103.7552,256.3611,0.00019378,2.798e-05,0.0,0 STARLINK-4718,1 53773U 22111A   23352.23372459  .00002798  00000-0  19378-3 0  9999,2 53773  53.2181 331.2973 0001532 103.7552 256.3611 15.08853453 71193,6917.839,95.437,540.764,538.644,0.0
53773.0,STARLINK-4718,PAYLOAD,2023-12-19 03:51:59,15.08830301,0.0001268,53.2175,327.1363,100.8093,259.3042,-6.541e-05,-1.328e-05,0.0,0 STARLINK-4718,1 53773U 22111A   23353.16110486 -.00001328  00000-0 -65410-4 0  9991,2 53773  53.2175 327.1363 0001268 100.8093 259.3042 15.08830301 70239,6917.91,95.438,540.652,538.898,0.0
53773.0,STARLINK-4718,PAYLOAD,2023-12-20 03:42:46,15.0883977,0.0001262,53.2173,322.6741,100.146,259.9674,1.3226e-05,-7.7e-07,0.0,0 STARLINK-4718,1 53773U 22111A   23354.15470437 -.00000077  00000-0  13226-4 0  9993,2 53773  53.2173 322.6741 0001262 100.1460 259.9674 15.08839770 70384,6917.881,95.438,540.619,538.873,0.0
53773.0,STARLINK-4718,PAYLOAD,2023-12-21 05:08:56,15.08857373,0.0001079,53.217,317.9234,87.1277,272.9838,0.00051779,7.966e-05,0.0,0 STARLINK-4718,1 53773U 22111A   23355.21454126  .00007966  00000-0  51779-3 0  9995,2 53773  53.2170 317.9234 0001079  87.1277 272.9838 15.08857373 70545,6917.827,95.436,540.439,538.946,0.0
53773.0,STARLINK-4718,PAYLOAD,2023-12-22 03:24:20,15.08842942,0.0001527,53.2164,313.759,76.1632,283.953,0.00016055,2.268e-05,0.0,0 STARLINK-4718,1 53773U 22111A   23356.14190711  .00002268  00000-0  16055-3 0  9993,2 53773  53.2164 313.7590 0001527  76.1632 283.9530 15.08842942 70680,6917.871,95.437,540.793,538.68,0.0
53773.0,STARLINK-4718,PAYLOAD,2023-12-22 04:59:43,15.08844692,0.0001561,53.2168,313.46,77.9168,282.1999,0.00022681,3.324e-05,0.0,0 STARLINK-4718,1 53773U 22111A   23356.20814650  .00003324  00000-0  22681-3 0  9991,2 53773  53.2168 313.4600 0001561  77.9168 282.1999 15.08844692 71791,6917.866,95.437,540.811,538.651,0.0
